<?xml version="1.0" encoding="UTF-8"?>
<gpx creator="StravaGPX" version="1.1" xmlns="http://www.topografix.com/GPX/1/1" xmlns:xsi="http://www.w3.org/2001/XMLSchema-instance" xsi:schemaLocation="http://www.topografix.com/GPX/1/1 http://www.topografix.com/GPX/1/1/gpx.xsd">
 <metadata>
  <name>evac variation 3</name>
  <author>
   <name>Pawel Kudzia </name>
   <link href="https://www.strava.com/athletes/4910963"/>
  </author>
  <copyright author="OpenStreetMap contributors">
   <year>2020</year>
   <license>https://www.openstreetmap.org/copyright</license>
  </copyright>
  <link href="https://www.strava.com/routes/3520121319252866418"/>
 </metadata>
 <trk>
  <name>evac variation 3</name>
  <link href="https://www.strava.com/routes/3520121319252866418"/>
  <type>trail_running</type>
  <trkseg>
   <trkpt lat="49.675230000000006" lon="-123.15625000000001">
    <ele>42.43</ele>
   </trkpt>
   <trkpt lat="49.675200000000004" lon="-123.15612000000002">
    <ele>42.46</ele>
   </trkpt>
   <trkpt lat="49.67517" lon="-123.15609">
    <ele>42.46</ele>
   </trkpt>
   <trkpt lat="49.675140000000006" lon="-123.15594000000002">
    <ele>42.17</ele>
   </trkpt>
   <trkpt lat="49.675180000000005" lon="-123.15591">
    <ele>42.17</ele>
   </trkpt>
   <trkpt lat="49.67550000000001" lon="-123.15577">
    <ele>43.690000000000005</ele>
   </trkpt>
   <trkpt lat="49.675790000000006" lon="-123.15554000000002">
    <ele>51.89000000000001</ele>
   </trkpt>
   <trkpt lat="49.67607" lon="-123.1551">
    <ele>57.11000000000001</ele>
   </trkpt>
   <trkpt lat="49.676190000000005" lon="-123.15505000000002">
    <ele>57.7</ele>
   </trkpt>
   <trkpt lat="49.676320000000004" lon="-123.15489000000001">
    <ele>60.97</ele>
   </trkpt>
   <trkpt lat="49.6764" lon="-123.1547">
    <ele>62.46000000000001</ele>
   </trkpt>
   <trkpt lat="49.67645" lon="-123.15447">
    <ele>64.24000000000001</ele>
   </trkpt>
   <trkpt lat="49.676480000000005" lon="-123.15417000000001">
    <ele>67.44</ele>
   </trkpt>
   <trkpt lat="49.67651000000001" lon="-123.15407">
    <ele>68.76</ele>
   </trkpt>
   <trkpt lat="49.67658" lon="-123.15393000000002">
    <ele>70.41</ele>
   </trkpt>
   <trkpt lat="49.676750000000006" lon="-123.15365000000001">
    <ele>76.11000000000001</ele>
   </trkpt>
   <trkpt lat="49.67663" lon="-123.15350000000001">
    <ele>76.76</ele>
   </trkpt>
   <trkpt lat="49.676460000000006" lon="-123.15344">
    <ele>77.24</ele>
   </trkpt>
   <trkpt lat="49.67627" lon="-123.15344">
    <ele>77.81</ele>
   </trkpt>
   <trkpt lat="49.67588000000001" lon="-123.15326">
    <ele>80.47</ele>
   </trkpt>
   <trkpt lat="49.67584" lon="-123.15322">
    <ele>81.81</ele>
   </trkpt>
   <trkpt lat="49.67578" lon="-123.15313">
    <ele>84.94</ele>
   </trkpt>
   <trkpt lat="49.67575" lon="-123.153">
    <ele>88.64000000000001</ele>
   </trkpt>
   <trkpt lat="49.675810000000006" lon="-123.15240000000001">
    <ele>118.22</ele>
   </trkpt>
   <trkpt lat="49.67588000000001" lon="-123.15199000000001">
    <ele>133.99</ele>
   </trkpt>
   <trkpt lat="49.676" lon="-123.15156">
    <ele>149.84</ele>
   </trkpt>
   <trkpt lat="49.67602" lon="-123.15155000000001">
    <ele>151.09</ele>
   </trkpt>
   <trkpt lat="49.67604000000001" lon="-123.15151000000002">
    <ele>151.09</ele>
   </trkpt>
   <trkpt lat="49.676080000000006" lon="-123.15125">
    <ele>162.57000000000002</ele>
   </trkpt>
   <trkpt lat="49.67609" lon="-123.15088000000002">
    <ele>171.84</ele>
   </trkpt>
   <trkpt lat="49.676050000000004" lon="-123.15078000000001">
    <ele>175.78000000000003</ele>
   </trkpt>
   <trkpt lat="49.67607" lon="-123.15067">
    <ele>175.78000000000003</ele>
   </trkpt>
   <trkpt lat="49.676050000000004" lon="-123.15062">
    <ele>186.16000000000003</ele>
   </trkpt>
   <trkpt lat="49.67615000000001" lon="-123.15049">
    <ele>190.94000000000003</ele>
   </trkpt>
   <trkpt lat="49.67615000000001" lon="-123.15035">
    <ele>195.16000000000003</ele>
   </trkpt>
   <trkpt lat="49.676100000000005" lon="-123.15022">
    <ele>200.96000000000004</ele>
   </trkpt>
   <trkpt lat="49.676170000000006" lon="-123.15009">
    <ele>203.03</ele>
   </trkpt>
   <trkpt lat="49.676140000000004" lon="-123.14995">
    <ele>208.17000000000002</ele>
   </trkpt>
   <trkpt lat="49.67625" lon="-123.14977">
    <ele>217.39000000000001</ele>
   </trkpt>
   <trkpt lat="49.67633000000001" lon="-123.14941">
    <ele>228.62</ele>
   </trkpt>
   <trkpt lat="49.67654" lon="-123.14915">
    <ele>243.27</ele>
   </trkpt>
   <trkpt lat="49.67665" lon="-123.14893000000001">
    <ele>251.01000000000002</ele>
   </trkpt>
   <trkpt lat="49.67672" lon="-123.1487">
    <ele>258.86</ele>
   </trkpt>
   <trkpt lat="49.67687" lon="-123.14839">
    <ele>272.41</ele>
   </trkpt>
   <trkpt lat="49.67703" lon="-123.14793000000002">
    <ele>284.7</ele>
   </trkpt>
   <trkpt lat="49.6769" lon="-123.14750000000001">
    <ele>284.8</ele>
   </trkpt>
   <trkpt lat="49.6769" lon="-123.14744">
    <ele>284.67</ele>
   </trkpt>
   <trkpt lat="49.677040000000005" lon="-123.14713">
    <ele>286.56000000000006</ele>
   </trkpt>
   <trkpt lat="49.677040000000005" lon="-123.14686">
    <ele>287.33000000000004</ele>
   </trkpt>
   <trkpt lat="49.67696" lon="-123.14634000000001">
    <ele>286.99</ele>
   </trkpt>
   <trkpt lat="49.676840000000006" lon="-123.1461">
    <ele>285.59000000000003</ele>
   </trkpt>
   <trkpt lat="49.67678" lon="-123.14603000000001">
    <ele>285.59000000000003</ele>
   </trkpt>
   <trkpt lat="49.676640000000006" lon="-123.14592">
    <ele>286.02</ele>
   </trkpt>
   <trkpt lat="49.67658" lon="-123.14592">
    <ele>286.24000000000007</ele>
   </trkpt>
   <trkpt lat="49.67643" lon="-123.14601">
    <ele>288.96000000000004</ele>
   </trkpt>
   <trkpt lat="49.676370000000006" lon="-123.14602000000001">
    <ele>290.16</ele>
   </trkpt>
   <trkpt lat="49.676210000000005" lon="-123.14590000000001">
    <ele>296.4</ele>
   </trkpt>
   <trkpt lat="49.67618" lon="-123.14592">
    <ele>296.95000000000005</ele>
   </trkpt>
   <trkpt lat="49.67602" lon="-123.14627000000002">
    <ele>298.07</ele>
   </trkpt>
   <trkpt lat="49.67602" lon="-123.14628">
    <ele>298.06000000000006</ele>
   </trkpt>
   <trkpt lat="49.67582" lon="-123.14699000000002">
    <ele>293.48</ele>
   </trkpt>
   <trkpt lat="49.67577000000001" lon="-123.14744">
    <ele>291.51000000000005</ele>
   </trkpt>
   <trkpt lat="49.675630000000005" lon="-123.14807">
    <ele>293.6</ele>
   </trkpt>
   <trkpt lat="49.675610000000006" lon="-123.14874">
    <ele>294.2</ele>
   </trkpt>
   <trkpt lat="49.67550000000001" lon="-123.14898000000001">
    <ele>298.25</ele>
   </trkpt>
   <trkpt lat="49.675340000000006" lon="-123.14915">
    <ele>303.50000000000006</ele>
   </trkpt>
   <trkpt lat="49.67522" lon="-123.14915">
    <ele>311.93</ele>
   </trkpt>
   <trkpt lat="49.6749" lon="-123.14929000000001">
    <ele>328.01</ele>
   </trkpt>
   <trkpt lat="49.67484" lon="-123.14925000000001">
    <ele>330.0</ele>
   </trkpt>
   <trkpt lat="49.674600000000005" lon="-123.14951">
    <ele>342.04</ele>
   </trkpt>
   <trkpt lat="49.674530000000004" lon="-123.14964">
    <ele>346.43</ele>
   </trkpt>
   <trkpt lat="49.674150000000004" lon="-123.14996000000001">
    <ele>351.86</ele>
   </trkpt>
   <trkpt lat="49.67407000000001" lon="-123.15017000000002">
    <ele>349.54</ele>
   </trkpt>
   <trkpt lat="49.673820000000006" lon="-123.1504">
    <ele>341.52000000000004</ele>
   </trkpt>
   <trkpt lat="49.673610000000004" lon="-123.15035">
    <ele>339.46000000000004</ele>
   </trkpt>
   <trkpt lat="49.67325" lon="-123.15054">
    <ele>333.4800000000001</ele>
   </trkpt>
   <trkpt lat="49.67316" lon="-123.15053">
    <ele>333.77</ele>
   </trkpt>
   <trkpt lat="49.67311" lon="-123.15049">
    <ele>334.36</ele>
   </trkpt>
   <trkpt lat="49.673080000000006" lon="-123.15036">
    <ele>339.32</ele>
   </trkpt>
   <trkpt lat="49.673100000000005" lon="-123.15018">
    <ele>344.12</ele>
   </trkpt>
   <trkpt lat="49.673210000000005" lon="-123.15004">
    <ele>354.44</ele>
   </trkpt>
   <trkpt lat="49.673260000000006" lon="-123.14991">
    <ele>354.44</ele>
   </trkpt>
   <trkpt lat="49.67327" lon="-123.14973">
    <ele>366.27000000000004</ele>
   </trkpt>
   <trkpt lat="49.67333000000001" lon="-123.1495">
    <ele>371.9</ele>
   </trkpt>
   <trkpt lat="49.673300000000005" lon="-123.14932">
    <ele>374.63</ele>
   </trkpt>
   <trkpt lat="49.673300000000005" lon="-123.14917000000001">
    <ele>375.95</ele>
   </trkpt>
   <trkpt lat="49.67338" lon="-123.14915">
    <ele>382.25</ele>
   </trkpt>
   <trkpt lat="49.67344000000001" lon="-123.14906">
    <ele>384.27000000000004</ele>
   </trkpt>
   <trkpt lat="49.67342000000001" lon="-123.14888">
    <ele>389.86</ele>
   </trkpt>
   <trkpt lat="49.67347" lon="-123.14878000000002">
    <ele>394.48</ele>
   </trkpt>
   <trkpt lat="49.67347" lon="-123.14865">
    <ele>397.18</ele>
   </trkpt>
   <trkpt lat="49.67353000000001" lon="-123.14856">
    <ele>405.65</ele>
   </trkpt>
   <trkpt lat="49.673550000000006" lon="-123.14847">
    <ele>405.65</ele>
   </trkpt>
   <trkpt lat="49.673320000000004" lon="-123.14821">
    <ele>426.44000000000005</ele>
   </trkpt>
   <trkpt lat="49.673170000000006" lon="-123.14821">
    <ele>434.15000000000003</ele>
   </trkpt>
   <trkpt lat="49.67313000000001" lon="-123.14812">
    <ele>445.68</ele>
   </trkpt>
   <trkpt lat="49.67313000000001" lon="-123.1479">
    <ele>450.89</ele>
   </trkpt>
   <trkpt lat="49.673190000000005" lon="-123.14776">
    <ele>450.89</ele>
   </trkpt>
   <trkpt lat="49.673210000000005" lon="-123.14749">
    <ele>465.57000000000005</ele>
   </trkpt>
   <trkpt lat="49.67353000000001" lon="-123.14695">
    <ele>483.45000000000005</ele>
   </trkpt>
   <trkpt lat="49.67356" lon="-123.14686">
    <ele>485.97</ele>
   </trkpt>
   <trkpt lat="49.67353000000001" lon="-123.14668">
    <ele>493.94000000000005</ele>
   </trkpt>
   <trkpt lat="49.67334" lon="-123.14645000000002">
    <ele>508.43000000000006</ele>
   </trkpt>
   <trkpt lat="49.67331" lon="-123.14634000000001">
    <ele>511.28000000000003</ele>
   </trkpt>
   <trkpt lat="49.673300000000005" lon="-123.14624">
    <ele>511.92</ele>
   </trkpt>
   <trkpt lat="49.673350000000006" lon="-123.14611000000001">
    <ele>512.96</ele>
   </trkpt>
   <trkpt lat="49.67344000000001" lon="-123.14598000000001">
    <ele>518.1300000000001</ele>
   </trkpt>
   <trkpt lat="49.67345" lon="-123.14588">
    <ele>524.17</ele>
   </trkpt>
   <trkpt lat="49.67342000000001" lon="-123.14579">
    <ele>524.17</ele>
   </trkpt>
   <trkpt lat="49.673370000000006" lon="-123.14575">
    <ele>537.6500000000001</ele>
   </trkpt>
   <trkpt lat="49.673100000000005" lon="-123.14579">
    <ele>548.4300000000001</ele>
   </trkpt>
   <trkpt lat="49.67297000000001" lon="-123.14579">
    <ele>554.48</ele>
   </trkpt>
   <trkpt lat="49.672790000000006" lon="-123.1457">
    <ele>567.03</ele>
   </trkpt>
   <trkpt lat="49.67277000000001" lon="-123.14560000000002">
    <ele>567.03</ele>
   </trkpt>
   <trkpt lat="49.67249" lon="-123.14580000000001">
    <ele>582.07</ele>
   </trkpt>
   <trkpt lat="49.672160000000005" lon="-123.14579">
    <ele>596.47</ele>
   </trkpt>
   <trkpt lat="49.67172" lon="-123.14579">
    <ele>597.8500000000001</ele>
   </trkpt>
   <trkpt lat="49.6715" lon="-123.14574">
    <ele>592.2900000000001</ele>
   </trkpt>
   <trkpt lat="49.67137" lon="-123.14569000000002">
    <ele>592.47</ele>
   </trkpt>
   <trkpt lat="49.67127000000001" lon="-123.14556">
    <ele>595.83</ele>
   </trkpt>
   <trkpt lat="49.67118000000001" lon="-123.1453">
    <ele>604.3900000000001</ele>
   </trkpt>
   <trkpt lat="49.67116000000001" lon="-123.14517000000001">
    <ele>608.8100000000001</ele>
   </trkpt>
   <trkpt lat="49.671170000000004" lon="-123.14507">
    <ele>611.19</ele>
   </trkpt>
   <trkpt lat="49.671200000000006" lon="-123.14503">
    <ele>613.6600000000001</ele>
   </trkpt>
   <trkpt lat="49.6715" lon="-123.14476">
    <ele>628.48</ele>
   </trkpt>
   <trkpt lat="49.671710000000004" lon="-123.14471">
    <ele>641.57</ele>
   </trkpt>
   <trkpt lat="49.671760000000006" lon="-123.14466000000002">
    <ele>643.35</ele>
   </trkpt>
   <trkpt lat="49.671820000000004" lon="-123.14449">
    <ele>647.69</ele>
   </trkpt>
   <trkpt lat="49.671850000000006" lon="-123.14435000000002">
    <ele>655.45</ele>
   </trkpt>
   <trkpt lat="49.671850000000006" lon="-123.14409">
    <ele>661.5000000000001</ele>
   </trkpt>
   <trkpt lat="49.67183000000001" lon="-123.14404">
    <ele>661.5000000000001</ele>
   </trkpt>
   <trkpt lat="49.67174000000001" lon="-123.14404">
    <ele>663.1</ele>
   </trkpt>
   <trkpt lat="49.6717" lon="-123.14396">
    <ele>671.7700000000001</ele>
   </trkpt>
   <trkpt lat="49.671730000000004" lon="-123.14387">
    <ele>671.7700000000001</ele>
   </trkpt>
   <trkpt lat="49.67177" lon="-123.14364">
    <ele>686.4800000000001</ele>
   </trkpt>
   <trkpt lat="49.67174000000001" lon="-123.14337">
    <ele>693.9000000000001</ele>
   </trkpt>
   <trkpt lat="49.671670000000006" lon="-123.14323000000002">
    <ele>699.77</ele>
   </trkpt>
   <trkpt lat="49.67166" lon="-123.14289000000001">
    <ele>708.1</ele>
   </trkpt>
   <trkpt lat="49.671670000000006" lon="-123.14278000000002">
    <ele>708.1</ele>
   </trkpt>
   <trkpt lat="49.671670000000006" lon="-123.14279">
    <ele>707.6800000000001</ele>
   </trkpt>
   <trkpt lat="49.671780000000005" lon="-123.14239">
    <ele>715.04</ele>
   </trkpt>
   <trkpt lat="49.67175" lon="-123.14225">
    <ele>721.6600000000001</ele>
   </trkpt>
   <trkpt lat="49.671710000000004" lon="-123.14216">
    <ele>722.43</ele>
   </trkpt>
   <trkpt lat="49.671870000000006" lon="-123.14203">
    <ele>722.45</ele>
   </trkpt>
   <trkpt lat="49.671960000000006" lon="-123.14199">
    <ele>721.4200000000001</ele>
   </trkpt>
   <trkpt lat="49.67208" lon="-123.14189">
    <ele>720.62</ele>
   </trkpt>
   <trkpt lat="49.67228" lon="-123.1418">
    <ele>721.13</ele>
   </trkpt>
   <trkpt lat="49.672410000000006" lon="-123.14158">
    <ele>719.52</ele>
   </trkpt>
   <trkpt lat="49.67250000000001" lon="-123.14149">
    <ele>717.9300000000001</ele>
   </trkpt>
   <trkpt lat="49.672520000000006" lon="-123.14144000000002">
    <ele>717.9300000000001</ele>
   </trkpt>
   <trkpt lat="49.67258" lon="-123.14135000000002">
    <ele>714.86</ele>
   </trkpt>
   <trkpt lat="49.67273" lon="-123.14127">
    <ele>711.49</ele>
   </trkpt>
   <trkpt lat="49.672880000000006" lon="-123.14114000000001">
    <ele>706.46</ele>
   </trkpt>
   <trkpt lat="49.67302" lon="-123.14109">
    <ele>702.9200000000001</ele>
   </trkpt>
   <trkpt lat="49.673140000000004" lon="-123.14095">
    <ele>701.4100000000001</ele>
   </trkpt>
   <trkpt lat="49.673170000000006" lon="-123.14086">
    <ele>701.6600000000001</ele>
   </trkpt>
   <trkpt lat="49.673170000000006" lon="-123.14068">
    <ele>702.22</ele>
   </trkpt>
   <trkpt lat="49.67311" lon="-123.14046">
    <ele>704.5400000000001</ele>
   </trkpt>
   <trkpt lat="49.673010000000005" lon="-123.14028">
    <ele>705.59</ele>
   </trkpt>
   <trkpt lat="49.67277000000001" lon="-123.13960000000002">
    <ele>707.9300000000001</ele>
   </trkpt>
   <trkpt lat="49.67248000000001" lon="-123.13914000000001">
    <ele>712.8000000000001</ele>
   </trkpt>
   <trkpt lat="49.672410000000006" lon="-123.13898">
    <ele>717.07</ele>
   </trkpt>
   <trkpt lat="49.67237" lon="-123.13867">
    <ele>731.45</ele>
   </trkpt>
   <trkpt lat="49.67239000000001" lon="-123.13849">
    <ele>736.32</ele>
   </trkpt>
   <trkpt lat="49.6724" lon="-123.13846000000001">
    <ele>736.32</ele>
   </trkpt>
   <trkpt lat="49.672380000000004" lon="-123.13827">
    <ele>741.48</ele>
   </trkpt>
   <trkpt lat="49.672450000000005" lon="-123.13813">
    <ele>743.87</ele>
   </trkpt>
   <trkpt lat="49.67246" lon="-123.138">
    <ele>745.33</ele>
   </trkpt>
   <trkpt lat="49.67237" lon="-123.13768">
    <ele>749.71</ele>
   </trkpt>
   <trkpt lat="49.67244" lon="-123.13751">
    <ele>753.9</ele>
   </trkpt>
   <trkpt lat="49.672450000000005" lon="-123.13734000000001">
    <ele>756.8600000000001</ele>
   </trkpt>
   <trkpt lat="49.67239000000001" lon="-123.13724">
    <ele>755.44</ele>
   </trkpt>
   <trkpt lat="49.67231" lon="-123.13723000000002">
    <ele>754.53</ele>
   </trkpt>
   <trkpt lat="49.67221000000001" lon="-123.1371">
    <ele>754.8100000000001</ele>
   </trkpt>
   <trkpt lat="49.672200000000004" lon="-123.13702">
    <ele>756.2200000000001</ele>
   </trkpt>
   <trkpt lat="49.67224" lon="-123.13684">
    <ele>756.74</ele>
   </trkpt>
   <trkpt lat="49.67224" lon="-123.13675">
    <ele>758.11</ele>
   </trkpt>
   <trkpt lat="49.672180000000004" lon="-123.13643">
    <ele>763.0400000000001</ele>
   </trkpt>
   <trkpt lat="49.67215" lon="-123.13638000000002">
    <ele>763.0400000000001</ele>
   </trkpt>
   <trkpt lat="49.67195" lon="-123.13622000000001">
    <ele>769.5900000000001</ele>
   </trkpt>
   <trkpt lat="49.67188" lon="-123.13621">
    <ele>770.5300000000001</ele>
   </trkpt>
   <trkpt lat="49.671780000000005" lon="-123.13621">
    <ele>772.19</ele>
   </trkpt>
   <trkpt lat="49.67147000000001" lon="-123.13611000000002">
    <ele>776.4200000000001</ele>
   </trkpt>
   <trkpt lat="49.6713" lon="-123.13594">
    <ele>777.02</ele>
   </trkpt>
   <trkpt lat="49.67128" lon="-123.13563">
    <ele>777.6500000000001</ele>
   </trkpt>
   <trkpt lat="49.671240000000004" lon="-123.13554">
    <ele>778.2</ele>
   </trkpt>
   <trkpt lat="49.670950000000005" lon="-123.13522">
    <ele>783.63</ele>
   </trkpt>
   <trkpt lat="49.67103" lon="-123.13505">
    <ele>790.59</ele>
   </trkpt>
   <trkpt lat="49.671060000000004" lon="-123.13486">
    <ele>791.97</ele>
   </trkpt>
   <trkpt lat="49.67112" lon="-123.13486">
    <ele>793.2800000000001</ele>
   </trkpt>
   <trkpt lat="49.671130000000005" lon="-123.13482">
    <ele>794.42</ele>
   </trkpt>
   <trkpt lat="49.67108" lon="-123.13468">
    <ele>796.07</ele>
   </trkpt>
   <trkpt lat="49.670930000000006" lon="-123.13446">
    <ele>799.1800000000001</ele>
   </trkpt>
   <trkpt lat="49.67094" lon="-123.13437">
    <ele>800.21</ele>
   </trkpt>
   <trkpt lat="49.67094" lon="-123.13438000000001">
    <ele>799.94</ele>
   </trkpt>
   <trkpt lat="49.670970000000004" lon="-123.13416000000001">
    <ele>801.6800000000001</ele>
   </trkpt>
   <trkpt lat="49.67108" lon="-123.13384">
    <ele>805.3100000000001</ele>
   </trkpt>
   <trkpt lat="49.671110000000006" lon="-123.1337">
    <ele>806.21</ele>
   </trkpt>
   <trkpt lat="49.671170000000004" lon="-123.13361">
    <ele>809.96</ele>
   </trkpt>
   <trkpt lat="49.671260000000004" lon="-123.13338000000002">
    <ele>813.6000000000001</ele>
   </trkpt>
   <trkpt lat="49.67127000000001" lon="-123.1333">
    <ele>815.1</ele>
   </trkpt>
   <trkpt lat="49.67123" lon="-123.13313000000001">
    <ele>819.82</ele>
   </trkpt>
   <trkpt lat="49.67128" lon="-123.13308">
    <ele>819.82</ele>
   </trkpt>
   <trkpt lat="49.67137" lon="-123.13311000000002">
    <ele>824.3300000000002</ele>
   </trkpt>
   <trkpt lat="49.67145000000001" lon="-123.13303">
    <ele>829.08</ele>
   </trkpt>
   <trkpt lat="49.67157" lon="-123.1328">
    <ele>832.32</ele>
   </trkpt>
   <trkpt lat="49.67163000000001" lon="-123.13276">
    <ele>837.45</ele>
   </trkpt>
   <trkpt lat="49.67166" lon="-123.13268000000001">
    <ele>837.45</ele>
   </trkpt>
   <trkpt lat="49.67172" lon="-123.13263">
    <ele>840.6600000000001</ele>
   </trkpt>
   <trkpt lat="49.67175" lon="-123.13254">
    <ele>843.45</ele>
   </trkpt>
   <trkpt lat="49.671760000000006" lon="-123.13227">
    <ele>847.32</ele>
   </trkpt>
   <trkpt lat="49.67168" lon="-123.13213">
    <ele>847.99</ele>
   </trkpt>
   <trkpt lat="49.67166" lon="-123.13205">
    <ele>851.22</ele>
   </trkpt>
   <trkpt lat="49.671620000000004" lon="-123.13146">
    <ele>856.35</ele>
   </trkpt>
   <trkpt lat="49.67168" lon="-123.1311">
    <ele>866.62</ele>
   </trkpt>
   <trkpt lat="49.671670000000006" lon="-123.13106">
    <ele>866.62</ele>
   </trkpt>
   <trkpt lat="49.67157" lon="-123.13106">
    <ele>870.4000000000001</ele>
   </trkpt>
   <trkpt lat="49.671620000000004" lon="-123.13071000000001">
    <ele>881.23</ele>
   </trkpt>
   <trkpt lat="49.67161" lon="-123.1307">
    <ele>881.23</ele>
   </trkpt>
   <trkpt lat="49.671530000000004" lon="-123.1307">
    <ele>883.75</ele>
   </trkpt>
   <trkpt lat="49.671510000000005" lon="-123.13064000000001">
    <ele>884.8300000000002</ele>
   </trkpt>
   <trkpt lat="49.67156000000001" lon="-123.13057">
    <ele>884.51</ele>
   </trkpt>
   <trkpt lat="49.671580000000006" lon="-123.13052">
    <ele>884.51</ele>
   </trkpt>
   <trkpt lat="49.67156000000001" lon="-123.13039">
    <ele>883.8600000000001</ele>
   </trkpt>
   <trkpt lat="49.6715" lon="-123.13025">
    <ele>883.09</ele>
   </trkpt>
   <trkpt lat="49.671350000000004" lon="-123.13016">
    <ele>882.6100000000001</ele>
   </trkpt>
   <trkpt lat="49.671220000000005" lon="-123.1303">
    <ele>882.4300000000001</ele>
   </trkpt>
   <trkpt lat="49.671170000000004" lon="-123.13037000000001">
    <ele>882.4300000000001</ele>
   </trkpt>
  </trkseg>
 </trk>
</gpx>
