<?xml version="1.0" encoding="UTF-8"?>
<gpx creator="StravaGPX" version="1.1" xmlns="http://www.topografix.com/GPX/1/1" xmlns:xsi="http://www.w3.org/2001/XMLSchema-instance" xsi:schemaLocation="http://www.topografix.com/GPX/1/1 http://www.topografix.com/GPX/1/1/gpx.xsd">
 <metadata>
  <name>evac variation 2</name>
  <author>
   <name>Pawel Kudzia </name>
   <link href="https://www.strava.com/athletes/4910963"/>
  </author>
  <copyright author="OpenStreetMap contributors">
   <year>2020</year>
   <license>https://www.openstreetmap.org/copyright</license>
  </copyright>
  <link href="https://www.strava.com/routes/3520121319252866418"/>
 </metadata>
 <trk>
  <name>evac variation 2</name>
  <link href="https://www.strava.com/routes/3520121319252866418"/>
  <type>trail_running</type>
  <trkseg>
   <trkpt lat="49.675200000000004" lon="-123.15612000000002">
    <ele>42.46</ele>
   </trkpt>
   <trkpt lat="49.67517" lon="-123.15609">
    <ele>42.46</ele>
   </trkpt>
   <trkpt lat="49.675140000000006" lon="-123.15594000000002">
    <ele>42.17</ele>
   </trkpt>
   <trkpt lat="49.67504" lon="-123.15584000000001">
    <ele>41.97</ele>
   </trkpt>
   <trkpt lat="49.67486" lon="-123.15573">
    <ele>42.36</ele>
   </trkpt>
   <trkpt lat="49.67479" lon="-123.15564">
    <ele>43.2</ele>
   </trkpt>
   <trkpt lat="49.67481" lon="-123.15532">
    <ele>46.220000000000006</ele>
   </trkpt>
   <trkpt lat="49.67475" lon="-123.15523">
    <ele>46.74</ele>
   </trkpt>
   <trkpt lat="49.674600000000005" lon="-123.15527000000002">
    <ele>50.02</ele>
   </trkpt>
   <trkpt lat="49.67445000000001" lon="-123.15537">
    <ele>51.29</ele>
   </trkpt>
   <trkpt lat="49.674330000000005" lon="-123.15541">
    <ele>54.14000000000001</ele>
   </trkpt>
   <trkpt lat="49.674150000000004" lon="-123.15568">
    <ele>56.06</ele>
   </trkpt>
   <trkpt lat="49.67409000000001" lon="-123.15571000000001">
    <ele>57.45000000000001</ele>
   </trkpt>
   <trkpt lat="49.67394" lon="-123.1555">
    <ele>64.09</ele>
   </trkpt>
   <trkpt lat="49.673860000000005" lon="-123.15545000000002">
    <ele>64.09</ele>
   </trkpt>
   <trkpt lat="49.673840000000006" lon="-123.15530000000001">
    <ele>71.13000000000001</ele>
   </trkpt>
   <trkpt lat="49.67318" lon="-123.15566000000001">
    <ele>76.25000000000001</ele>
   </trkpt>
   <trkpt lat="49.6726" lon="-123.15584000000001">
    <ele>90.38</ele>
   </trkpt>
   <trkpt lat="49.67219000000001" lon="-123.15507000000001">
    <ele>137.57</ele>
   </trkpt>
   <trkpt lat="49.671760000000006" lon="-123.15471000000001">
    <ele>187.18</ele>
   </trkpt>
   <trkpt lat="49.67177" lon="-123.15415000000002">
    <ele>212.77</ele>
   </trkpt>
   <trkpt lat="49.671350000000004" lon="-123.15423000000001">
    <ele>240.67000000000002</ele>
   </trkpt>
   <trkpt lat="49.671350000000004" lon="-123.15422000000001">
    <ele>247.31000000000003</ele>
   </trkpt>
   <trkpt lat="49.67092" lon="-123.15442000000002">
    <ele>267.87</ele>
   </trkpt>
   <trkpt lat="49.67089000000001" lon="-123.15429">
    <ele>271.87</ele>
   </trkpt>
   <trkpt lat="49.670840000000005" lon="-123.15424000000002">
    <ele>274.13000000000005</ele>
   </trkpt>
   <trkpt lat="49.670790000000004" lon="-123.1542">
    <ele>281.18</ele>
   </trkpt>
   <trkpt lat="49.670790000000004" lon="-123.15412">
    <ele>281.18</ele>
   </trkpt>
   <trkpt lat="49.670730000000006" lon="-123.15407">
    <ele>283.41</ele>
   </trkpt>
   <trkpt lat="49.67074" lon="-123.15404000000001">
    <ele>285.51000000000005</ele>
   </trkpt>
   <trkpt lat="49.67081" lon="-123.15398">
    <ele>287.5</ele>
   </trkpt>
   <trkpt lat="49.67085" lon="-123.15386000000001">
    <ele>287.5</ele>
   </trkpt>
   <trkpt lat="49.67078" lon="-123.1538">
    <ele>297.07</ele>
   </trkpt>
   <trkpt lat="49.670680000000004" lon="-123.1538">
    <ele>298.9</ele>
   </trkpt>
   <trkpt lat="49.67065" lon="-123.15376">
    <ele>300.6</ele>
   </trkpt>
   <trkpt lat="49.67076" lon="-123.15367">
    <ele>307.97</ele>
   </trkpt>
   <trkpt lat="49.670770000000005" lon="-123.15362">
    <ele>307.97</ele>
   </trkpt>
   <trkpt lat="49.67076" lon="-123.15358">
    <ele>307.97</ele>
   </trkpt>
   <trkpt lat="49.67072" lon="-123.15353">
    <ele>309.37</ele>
   </trkpt>
   <trkpt lat="49.670680000000004" lon="-123.15353">
    <ele>310.65000000000003</ele>
   </trkpt>
   <trkpt lat="49.670440000000006" lon="-123.1538">
    <ele>313.25</ele>
   </trkpt>
   <trkpt lat="49.67036" lon="-123.15381000000001">
    <ele>313.37</ele>
   </trkpt>
   <trkpt lat="49.67033000000001" lon="-123.1538">
    <ele>313.82000000000005</ele>
   </trkpt>
   <trkpt lat="49.670260000000006" lon="-123.15362">
    <ele>317.58000000000004</ele>
   </trkpt>
   <trkpt lat="49.670230000000004" lon="-123.15358">
    <ele>319.46000000000004</ele>
   </trkpt>
   <trkpt lat="49.670190000000005" lon="-123.15358">
    <ele>319.46000000000004</ele>
   </trkpt>
   <trkpt lat="49.670120000000004" lon="-123.15363">
    <ele>324.25000000000006</ele>
   </trkpt>
   <trkpt lat="49.67011" lon="-123.15364000000001">
    <ele>324.29</ele>
   </trkpt>
   <trkpt lat="49.67005" lon="-123.15367">
    <ele>327.55</ele>
   </trkpt>
   <trkpt lat="49.669410000000006" lon="-123.15424000000002">
    <ele>345.49</ele>
   </trkpt>
   <trkpt lat="49.6694" lon="-123.15424000000002">
    <ele>336.82</ele>
   </trkpt>
   <trkpt lat="49.66915" lon="-123.15378000000001">
    <ele>367.25</ele>
   </trkpt>
   <trkpt lat="49.668940000000006" lon="-123.15310000000001">
    <ele>394.5400000000001</ele>
   </trkpt>
   <trkpt lat="49.66899" lon="-123.15220000000001">
    <ele>413.42</ele>
   </trkpt>
   <trkpt lat="49.669160000000005" lon="-123.15145000000001">
    <ele>420.68000000000006</ele>
   </trkpt>
   <trkpt lat="49.66937" lon="-123.15086000000001">
    <ele>431.38000000000005</ele>
   </trkpt>
   <trkpt lat="49.66935" lon="-123.15087000000001">
    <ele>434.1</ele>
   </trkpt>
   <trkpt lat="49.66935" lon="-123.15066000000002">
    <ele>443.08000000000004</ele>
   </trkpt>
   <trkpt lat="49.66942" lon="-123.15027">
    <ele>449.98</ele>
   </trkpt>
   <trkpt lat="49.669410000000006" lon="-123.15013">
    <ele>453.99000000000007</ele>
   </trkpt>
   <trkpt lat="49.669360000000005" lon="-123.15">
    <ele>457.01</ele>
   </trkpt>
   <trkpt lat="49.66924" lon="-123.14987">
    <ele>461.99</ele>
   </trkpt>
   <trkpt lat="49.66912000000001" lon="-123.1495">
    <ele>468.80000000000007</ele>
   </trkpt>
   <trkpt lat="49.66910000000001" lon="-123.14928">
    <ele>471.96000000000004</ele>
   </trkpt>
   <trkpt lat="49.669140000000006" lon="-123.14901">
    <ele>473.83000000000004</ele>
   </trkpt>
   <trkpt lat="49.669140000000006" lon="-123.14888">
    <ele>474.74000000000007</ele>
   </trkpt>
   <trkpt lat="49.669090000000004" lon="-123.14869000000002">
    <ele>477.07000000000005</ele>
   </trkpt>
   <trkpt lat="49.66902" lon="-123.14857">
    <ele>479.24000000000007</ele>
   </trkpt>
   <trkpt lat="49.668940000000006" lon="-123.14853000000001">
    <ele>482.32</ele>
   </trkpt>
   <trkpt lat="49.6689" lon="-123.14847">
    <ele>483.39000000000004</ele>
   </trkpt>
   <trkpt lat="49.668870000000005" lon="-123.14825">
    <ele>487.08</ele>
   </trkpt>
   <trkpt lat="49.66883000000001" lon="-123.14816">
    <ele>488.52000000000004</ele>
   </trkpt>
   <trkpt lat="49.66868" lon="-123.14804000000001">
    <ele>494.96000000000004</ele>
   </trkpt>
   <trkpt lat="49.66875" lon="-123.14776">
    <ele>496.3</ele>
   </trkpt>
   <trkpt lat="49.668710000000004" lon="-123.14749">
    <ele>508.13000000000005</ele>
   </trkpt>
   <trkpt lat="49.66879" lon="-123.14726000000002">
    <ele>512.1800000000001</ele>
   </trkpt>
   <trkpt lat="49.66863000000001" lon="-123.14673">
    <ele>524.9200000000001</ele>
   </trkpt>
   <trkpt lat="49.66854000000001" lon="-123.1466">
    <ele>531.59</ele>
   </trkpt>
   <trkpt lat="49.668580000000006" lon="-123.14633">
    <ele>535.6899999999999</ele>
   </trkpt>
   <trkpt lat="49.66866" lon="-123.14614000000002">
    <ele>540.82</ele>
   </trkpt>
   <trkpt lat="49.66863000000001" lon="-123.14584">
    <ele>551.8700000000001</ele>
   </trkpt>
   <trkpt lat="49.668580000000006" lon="-123.1457">
    <ele>553.6600000000001</ele>
   </trkpt>
   <trkpt lat="49.66861" lon="-123.14544000000001">
    <ele>556.61</ele>
   </trkpt>
   <trkpt lat="49.668580000000006" lon="-123.1453">
    <ele>562.9200000000001</ele>
   </trkpt>
   <trkpt lat="49.66854000000001" lon="-123.14525">
    <ele>562.9200000000001</ele>
   </trkpt>
   <trkpt lat="49.66856000000001" lon="-123.14493000000002">
    <ele>569.69</ele>
   </trkpt>
   <trkpt lat="49.66863000000001" lon="-123.14481">
    <ele>571.72</ele>
   </trkpt>
   <trkpt lat="49.6687" lon="-123.1448">
    <ele>574.4</ele>
   </trkpt>
   <trkpt lat="49.668910000000004" lon="-123.14485">
    <ele>578.5100000000001</ele>
   </trkpt>
   <trkpt lat="49.66910000000001" lon="-123.14485">
    <ele>584.55</ele>
   </trkpt>
   <trkpt lat="49.669180000000004" lon="-123.14476">
    <ele>587.07</ele>
   </trkpt>
   <trkpt lat="49.66926" lon="-123.14475000000002">
    <ele>589.26</ele>
   </trkpt>
   <trkpt lat="49.669610000000006" lon="-123.14485">
    <ele>600.08</ele>
   </trkpt>
   <trkpt lat="49.669650000000004" lon="-123.14489">
    <ele>600.08</ele>
   </trkpt>
   <trkpt lat="49.669920000000005" lon="-123.14486000000001">
    <ele>608.35</ele>
   </trkpt>
   <trkpt lat="49.66998" lon="-123.14489">
    <ele>609.84</ele>
   </trkpt>
   <trkpt lat="49.670100000000005" lon="-123.14489">
    <ele>616.2</ele>
   </trkpt>
   <trkpt lat="49.67015000000001" lon="-123.14484000000002">
    <ele>616.2</ele>
   </trkpt>
   <trkpt lat="49.67024000000001" lon="-123.14453">
    <ele>626.2800000000001</ele>
   </trkpt>
   <trkpt lat="49.67034" lon="-123.14441000000001">
    <ele>630.0400000000001</ele>
   </trkpt>
   <trkpt lat="49.67049" lon="-123.14418">
    <ele>633.0600000000001</ele>
   </trkpt>
   <trkpt lat="49.67058" lon="-123.14419000000001">
    <ele>633.82</ele>
   </trkpt>
   <trkpt lat="49.67067" lon="-123.14414000000001">
    <ele>636.46</ele>
   </trkpt>
   <trkpt lat="49.67076" lon="-123.14401000000001">
    <ele>638.93</ele>
   </trkpt>
   <trkpt lat="49.67067" lon="-123.14386">
    <ele>642.5900000000001</ele>
   </trkpt>
   <trkpt lat="49.67065" lon="-123.14378">
    <ele>644.48</ele>
   </trkpt>
   <trkpt lat="49.67067" lon="-123.14374000000001">
    <ele>646.9200000000001</ele>
   </trkpt>
   <trkpt lat="49.670840000000005" lon="-123.14373">
    <ele>659.12</ele>
   </trkpt>
   <trkpt lat="49.670880000000004" lon="-123.14368">
    <ele>659.12</ele>
   </trkpt>
   <trkpt lat="49.670910000000006" lon="-123.14351">
    <ele>671.09</ele>
   </trkpt>
   <trkpt lat="49.67099" lon="-123.14333">
    <ele>677.6800000000001</ele>
   </trkpt>
   <trkpt lat="49.67098000000001" lon="-123.1431">
    <ele>682.23</ele>
   </trkpt>
   <trkpt lat="49.67103" lon="-123.14306">
    <ele>683.85</ele>
   </trkpt>
   <trkpt lat="49.6711" lon="-123.1431">
    <ele>685.59</ele>
   </trkpt>
   <trkpt lat="49.671170000000004" lon="-123.1431">
    <ele>685.59</ele>
   </trkpt>
   <trkpt lat="49.67121" lon="-123.14307000000001">
    <ele>696.34</ele>
   </trkpt>
   <trkpt lat="49.67123" lon="-123.14301">
    <ele>696.34</ele>
   </trkpt>
   <trkpt lat="49.671290000000006" lon="-123.14293">
    <ele>696.34</ele>
   </trkpt>
   <trkpt lat="49.67141" lon="-123.14266">
    <ele>705.97</ele>
   </trkpt>
   <trkpt lat="49.67146" lon="-123.14262000000001">
    <ele>708.1500000000001</ele>
   </trkpt>
   <trkpt lat="49.67145000000001" lon="-123.14262000000001">
    <ele>708.58</ele>
   </trkpt>
   <trkpt lat="49.67159" lon="-123.14252">
    <ele>713.86</ele>
   </trkpt>
   <trkpt lat="49.67172" lon="-123.14220000000002">
    <ele>721.6600000000001</ele>
   </trkpt>
   <trkpt lat="49.671710000000004" lon="-123.14216">
    <ele>722.43</ele>
   </trkpt>
   <trkpt lat="49.671870000000006" lon="-123.14203">
    <ele>722.45</ele>
   </trkpt>
   <trkpt lat="49.671960000000006" lon="-123.14199">
    <ele>721.4200000000001</ele>
   </trkpt>
   <trkpt lat="49.67208" lon="-123.14189">
    <ele>720.62</ele>
   </trkpt>
   <trkpt lat="49.67228" lon="-123.1418">
    <ele>721.13</ele>
   </trkpt>
   <trkpt lat="49.672410000000006" lon="-123.14158">
    <ele>719.52</ele>
   </trkpt>
   <trkpt lat="49.67250000000001" lon="-123.14149">
    <ele>717.9300000000001</ele>
   </trkpt>
   <trkpt lat="49.672520000000006" lon="-123.14144000000002">
    <ele>714.86</ele>
   </trkpt>
   <trkpt lat="49.67258" lon="-123.14135000000002">
    <ele>713.99</ele>
   </trkpt>
   <trkpt lat="49.67273" lon="-123.14127">
    <ele>711.49</ele>
   </trkpt>
   <trkpt lat="49.672880000000006" lon="-123.14114000000001">
    <ele>706.46</ele>
   </trkpt>
   <trkpt lat="49.67302" lon="-123.14109">
    <ele>702.9200000000001</ele>
   </trkpt>
   <trkpt lat="49.673140000000004" lon="-123.14095">
    <ele>701.47</ele>
   </trkpt>
   <trkpt lat="49.673170000000006" lon="-123.14086">
    <ele>701.6600000000001</ele>
   </trkpt>
   <trkpt lat="49.673170000000006" lon="-123.14068">
    <ele>702.67</ele>
   </trkpt>
   <trkpt lat="49.67311" lon="-123.14046">
    <ele>704.5400000000001</ele>
   </trkpt>
   <trkpt lat="49.673010000000005" lon="-123.14028">
    <ele>705.59</ele>
   </trkpt>
   <trkpt lat="49.67277000000001" lon="-123.13960000000002">
    <ele>707.9300000000001</ele>
   </trkpt>
   <trkpt lat="49.67248000000001" lon="-123.13914000000001">
    <ele>714.0200000000001</ele>
   </trkpt>
   <trkpt lat="49.672410000000006" lon="-123.13898">
    <ele>717.07</ele>
   </trkpt>
   <trkpt lat="49.67237" lon="-123.13867">
    <ele>731.45</ele>
   </trkpt>
   <trkpt lat="49.67239000000001" lon="-123.13849">
    <ele>736.32</ele>
   </trkpt>
   <trkpt lat="49.67244" lon="-123.1384">
    <ele>739.2800000000001</ele>
   </trkpt>
   <trkpt lat="49.672630000000005" lon="-123.13827">
    <ele>743.74</ele>
   </trkpt>
   <trkpt lat="49.67271" lon="-123.13818">
    <ele>746.44</ele>
   </trkpt>
   <trkpt lat="49.672940000000004" lon="-123.13751">
    <ele>758.12</ele>
   </trkpt>
   <trkpt lat="49.67305" lon="-123.13688">
    <ele>765.95</ele>
   </trkpt>
   <trkpt lat="49.67305" lon="-123.13680000000001">
    <ele>766.2</ele>
   </trkpt>
   <trkpt lat="49.67302" lon="-123.13674">
    <ele>766.3100000000001</ele>
   </trkpt>
   <trkpt lat="49.67284" lon="-123.13661">
    <ele>766.0100000000001</ele>
   </trkpt>
   <trkpt lat="49.672760000000004" lon="-123.13648">
    <ele>765.96</ele>
   </trkpt>
   <trkpt lat="49.67266000000001" lon="-123.13611000000002">
    <ele>767.48</ele>
   </trkpt>
   <trkpt lat="49.67266000000001" lon="-123.13594">
    <ele>768.8000000000001</ele>
   </trkpt>
   <trkpt lat="49.67269" lon="-123.1358">
    <ele>770.32</ele>
   </trkpt>
   <trkpt lat="49.67268000000001" lon="-123.13571">
    <ele>772.7</ele>
   </trkpt>
   <trkpt lat="49.67266000000001" lon="-123.13563">
    <ele>772.7</ele>
   </trkpt>
   <trkpt lat="49.67250000000001" lon="-123.1354">
    <ele>776.66</ele>
   </trkpt>
   <trkpt lat="49.67250000000001" lon="-123.13531">
    <ele>776.66</ele>
   </trkpt>
   <trkpt lat="49.67253" lon="-123.13522">
    <ele>782.93</ele>
   </trkpt>
   <trkpt lat="49.672540000000005" lon="-123.13504">
    <ele>785.6400000000001</ele>
   </trkpt>
   <trkpt lat="49.67250000000001" lon="-123.13491">
    <ele>785.6400000000001</ele>
   </trkpt>
   <trkpt lat="49.6724" lon="-123.13486">
    <ele>791.3500000000001</ele>
   </trkpt>
   <trkpt lat="49.67235" lon="-123.13482">
    <ele>791.3500000000001</ele>
   </trkpt>
   <trkpt lat="49.672270000000005" lon="-123.13446">
    <ele>799.3100000000001</ele>
   </trkpt>
   <trkpt lat="49.67230000000001" lon="-123.13437">
    <ele>800.9300000000001</ele>
   </trkpt>
   <trkpt lat="49.672380000000004" lon="-123.13423000000002">
    <ele>807.7500000000001</ele>
   </trkpt>
   <trkpt lat="49.672360000000005" lon="-123.13416000000001">
    <ele>809.3800000000001</ele>
   </trkpt>
   <trkpt lat="49.672200000000004" lon="-123.13398000000001">
    <ele>815.79</ele>
   </trkpt>
   <trkpt lat="49.67212000000001" lon="-123.13379">
    <ele>823.7</ele>
   </trkpt>
   <trkpt lat="49.67212000000001" lon="-123.13371000000001">
    <ele>823.7</ele>
   </trkpt>
   <trkpt lat="49.67215" lon="-123.13362000000001">
    <ele>829.4800000000001</ele>
   </trkpt>
   <trkpt lat="49.67222" lon="-123.13353000000001">
    <ele>831.2700000000001</ele>
   </trkpt>
   <trkpt lat="49.67244" lon="-123.13316">
    <ele>839.8800000000001</ele>
   </trkpt>
   <trkpt lat="49.67250000000001" lon="-123.13294">
    <ele>846.04</ele>
   </trkpt>
   <trkpt lat="49.672470000000004" lon="-123.13264000000001">
    <ele>851.6600000000001</ele>
   </trkpt>
   <trkpt lat="49.672430000000006" lon="-123.13259000000001">
    <ele>852.8800000000001</ele>
   </trkpt>
   <trkpt lat="49.672180000000004" lon="-123.13241000000001">
    <ele>856.3600000000001</ele>
   </trkpt>
   <trkpt lat="49.67195" lon="-123.13195">
    <ele>854.2700000000001</ele>
   </trkpt>
   <trkpt lat="49.67193" lon="-123.13182">
    <ele>855.5400000000001</ele>
   </trkpt>
   <trkpt lat="49.671980000000005" lon="-123.13141000000002">
    <ele>860.0000000000001</ele>
   </trkpt>
   <trkpt lat="49.67192000000001" lon="-123.13119">
    <ele>863.08</ele>
   </trkpt>
   <trkpt lat="49.67193" lon="-123.13115">
    <ele>864.44</ele>
   </trkpt>
   <trkpt lat="49.67211" lon="-123.13092">
    <ele>872.1</ele>
   </trkpt>
   <trkpt lat="49.67210000000001" lon="-123.13084">
    <ele>873.47</ele>
   </trkpt>
   <trkpt lat="49.67199" lon="-123.13075">
    <ele>875.7900000000001</ele>
   </trkpt>
   <trkpt lat="49.671760000000006" lon="-123.13064000000001">
    <ele>882.08</ele>
   </trkpt>
   <trkpt lat="49.67163000000001" lon="-123.13062000000001">
    <ele>884.51</ele>
   </trkpt>
   <trkpt lat="49.67156000000001" lon="-123.13057">
    <ele>884.51</ele>
   </trkpt>
   <trkpt lat="49.671510000000005" lon="-123.13064000000001">
    <ele>884.8300000000002</ele>
   </trkpt>
   <trkpt lat="49.671380000000006" lon="-123.13071000000001">
    <ele>885.2700000000001</ele>
   </trkpt>
   <trkpt lat="49.67123" lon="-123.13062000000001">
    <ele>885.08</ele>
   </trkpt>
   <trkpt lat="49.671130000000005" lon="-123.13066">
    <ele>884.2700000000001</ele>
   </trkpt>
   <trkpt lat="49.671130000000005" lon="-123.13082000000001">
    <ele>883.96</ele>
   </trkpt>
   <trkpt lat="49.6711" lon="-123.13079">
    <ele>883.5600000000001</ele>
   </trkpt>
   <trkpt lat="49.67108" lon="-123.13062000000001">
    <ele>882.6400000000001</ele>
   </trkpt>
   <trkpt lat="49.671110000000006" lon="-123.13050000000001">
    <ele>882.6400000000001</ele>
   </trkpt>
   <trkpt lat="49.67119" lon="-123.13052">
    <ele>882.62</ele>
   </trkpt>
   <trkpt lat="49.67127000000001" lon="-123.13048">
    <ele>882.5</ele>
   </trkpt>
   <trkpt lat="49.671310000000005" lon="-123.13040000000001">
    <ele>882.5</ele>
   </trkpt>
   <trkpt lat="49.671310000000005" lon="-123.13033000000001">
    <ele>882.5</ele>
   </trkpt>
  </trkseg>
 </trk>
</gpx>
