<?xml version="1.0" encoding="UTF-8"?>
<gpx creator="StravaGPX" version="1.1" xmlns="http://www.topografix.com/GPX/1/1" xmlns:xsi="http://www.w3.org/2001/XMLSchema-instance" xsi:schemaLocation="http://www.topografix.com/GPX/1/1 http://www.topografix.com/GPX/1/1/gpx.xsd">
 <metadata>
  <name>evac variation 5</name>
  <author>
   <name>Pawel Kudzia </name>
   <link href="https://www.strava.com/athletes/4910963"/>
  </author>
  <copyright author="OpenStreetMap contributors">
   <year>2020</year>
   <license>https://www.openstreetmap.org/copyright</license>
  </copyright>
  <link href="https://www.strava.com/routes/3520121319252866418"/>
 </metadata>
 <trk>
  <name>evac variation 5</name>
  <link href="https://www.strava.com/routes/3520121319252866418"/>
  <type>trail_running</type>
  <trkseg>
   <trkpt lat="49.675200000000004" lon="-123.15612000000002">
    <ele>42.46</ele>
   </trkpt>
   <trkpt lat="49.67517" lon="-123.15609">
    <ele>42.46</ele>
   </trkpt>
   <trkpt lat="49.675140000000006" lon="-123.15594000000002">
    <ele>42.17</ele>
   </trkpt>
   <trkpt lat="49.67504" lon="-123.15584000000001">
    <ele>41.97</ele>
   </trkpt>
   <trkpt lat="49.67486" lon="-123.15573">
    <ele>42.36</ele>
   </trkpt>
   <trkpt lat="49.67479" lon="-123.15564">
    <ele>43.2</ele>
   </trkpt>
   <trkpt lat="49.67481" lon="-123.15532">
    <ele>46.220000000000006</ele>
   </trkpt>
   <trkpt lat="49.67475" lon="-123.15523">
    <ele>46.74</ele>
   </trkpt>
   <trkpt lat="49.674600000000005" lon="-123.15527000000002">
    <ele>50.02</ele>
   </trkpt>
   <trkpt lat="49.67445000000001" lon="-123.15537">
    <ele>51.29</ele>
   </trkpt>
   <trkpt lat="49.674330000000005" lon="-123.15541">
    <ele>54.14000000000001</ele>
   </trkpt>
   <trkpt lat="49.674150000000004" lon="-123.15568">
    <ele>56.06</ele>
   </trkpt>
   <trkpt lat="49.67409000000001" lon="-123.15571000000001">
    <ele>57.45000000000001</ele>
   </trkpt>
   <trkpt lat="49.67394" lon="-123.1555">
    <ele>64.09</ele>
   </trkpt>
   <trkpt lat="49.673860000000005" lon="-123.15545000000002">
    <ele>64.09</ele>
   </trkpt>
   <trkpt lat="49.673840000000006" lon="-123.15530000000001">
    <ele>71.13000000000001</ele>
   </trkpt>
   <trkpt lat="49.673730000000006" lon="-123.15541">
    <ele>72.75000000000001</ele>
   </trkpt>
   <trkpt lat="49.67363" lon="-123.15537">
    <ele>73.55</ele>
   </trkpt>
   <trkpt lat="49.673390000000005" lon="-123.15541">
    <ele>77.89</ele>
   </trkpt>
   <trkpt lat="49.67325" lon="-123.1555">
    <ele>81.08000000000001</ele>
   </trkpt>
   <trkpt lat="49.672920000000005" lon="-123.15583000000001">
    <ele>102.23</ele>
   </trkpt>
   <trkpt lat="49.67284" lon="-123.15590000000002">
    <ele>102.23</ele>
   </trkpt>
   <trkpt lat="49.67278" lon="-123.15591">
    <ele>110.31</ele>
   </trkpt>
   <trkpt lat="49.672470000000004" lon="-123.15586">
    <ele>122.68</ele>
   </trkpt>
   <trkpt lat="49.672450000000005" lon="-123.15582">
    <ele>122.68</ele>
   </trkpt>
   <trkpt lat="49.672430000000006" lon="-123.15555">
    <ele>133.9</ele>
   </trkpt>
   <trkpt lat="49.6724" lon="-123.15546">
    <ele>133.9</ele>
   </trkpt>
   <trkpt lat="49.67233" lon="-123.15538000000001">
    <ele>144.88</ele>
   </trkpt>
   <trkpt lat="49.67226" lon="-123.15515">
    <ele>149.63000000000002</ele>
   </trkpt>
   <trkpt lat="49.672050000000006" lon="-123.15501">
    <ele>167.25</ele>
   </trkpt>
   <trkpt lat="49.671960000000006" lon="-123.15501">
    <ele>167.25</ele>
   </trkpt>
   <trkpt lat="49.67179" lon="-123.15496000000002">
    <ele>177.58</ele>
   </trkpt>
   <trkpt lat="49.671730000000004" lon="-123.15488">
    <ele>180.43</ele>
   </trkpt>
   <trkpt lat="49.67172" lon="-123.15483">
    <ele>180.43</ele>
   </trkpt>
   <trkpt lat="49.671760000000006" lon="-123.15462000000001">
    <ele>192.81</ele>
   </trkpt>
   <trkpt lat="49.671730000000004" lon="-123.15451000000002">
    <ele>198.60000000000002</ele>
   </trkpt>
   <trkpt lat="49.671820000000004" lon="-123.15412">
    <ele>215.12</ele>
   </trkpt>
   <trkpt lat="49.67181" lon="-123.15407">
    <ele>217.85000000000002</ele>
   </trkpt>
   <trkpt lat="49.671780000000005" lon="-123.15403">
    <ele>220.38000000000002</ele>
   </trkpt>
   <trkpt lat="49.67174000000001" lon="-123.15408000000001">
    <ele>222.66000000000003</ele>
   </trkpt>
   <trkpt lat="49.671690000000005" lon="-123.1542">
    <ele>224.69000000000003</ele>
   </trkpt>
   <trkpt lat="49.671640000000004" lon="-123.15426000000001">
    <ele>228.34</ele>
   </trkpt>
   <trkpt lat="49.67157" lon="-123.15425">
    <ele>232.42000000000002</ele>
   </trkpt>
   <trkpt lat="49.67147000000001" lon="-123.1542">
    <ele>237.92000000000002</ele>
   </trkpt>
   <trkpt lat="49.67141" lon="-123.1542">
    <ele>247.51</ele>
   </trkpt>
   <trkpt lat="49.67092" lon="-123.15442000000002">
    <ele>267.87</ele>
   </trkpt>
   <trkpt lat="49.67089000000001" lon="-123.15431000000001">
    <ele>271.59</ele>
   </trkpt>
   <trkpt lat="49.670840000000005" lon="-123.15424000000002">
    <ele>274.13000000000005</ele>
   </trkpt>
   <trkpt lat="49.670790000000004" lon="-123.1542">
    <ele>274.13000000000005</ele>
   </trkpt>
   <trkpt lat="49.670790000000004" lon="-123.15412">
    <ele>281.18</ele>
   </trkpt>
   <trkpt lat="49.670730000000006" lon="-123.15407">
    <ele>283.41</ele>
   </trkpt>
   <trkpt lat="49.67074" lon="-123.15404000000001">
    <ele>283.41</ele>
   </trkpt>
   <trkpt lat="49.67081" lon="-123.15398">
    <ele>287.5</ele>
   </trkpt>
   <trkpt lat="49.67085" lon="-123.15386000000001">
    <ele>287.5</ele>
   </trkpt>
   <trkpt lat="49.67078" lon="-123.1538">
    <ele>297.07</ele>
   </trkpt>
   <trkpt lat="49.670680000000004" lon="-123.1538">
    <ele>298.9</ele>
   </trkpt>
   <trkpt lat="49.67065" lon="-123.15376">
    <ele>300.6</ele>
   </trkpt>
   <trkpt lat="49.67076" lon="-123.15367">
    <ele>302.15000000000003</ele>
   </trkpt>
   <trkpt lat="49.670770000000005" lon="-123.15362">
    <ele>307.97</ele>
   </trkpt>
   <trkpt lat="49.67076" lon="-123.15358">
    <ele>307.97</ele>
   </trkpt>
   <trkpt lat="49.67072" lon="-123.15353">
    <ele>307.97</ele>
   </trkpt>
   <trkpt lat="49.670680000000004" lon="-123.15353">
    <ele>309.37</ele>
   </trkpt>
   <trkpt lat="49.670440000000006" lon="-123.1538">
    <ele>313.39</ele>
   </trkpt>
   <trkpt lat="49.67036" lon="-123.15381000000001">
    <ele>313.37</ele>
   </trkpt>
   <trkpt lat="49.67033000000001" lon="-123.1538">
    <ele>313.37</ele>
   </trkpt>
   <trkpt lat="49.670260000000006" lon="-123.15362">
    <ele>315.95</ele>
   </trkpt>
   <trkpt lat="49.670230000000004" lon="-123.15358">
    <ele>317.58000000000004</ele>
   </trkpt>
   <trkpt lat="49.670190000000005" lon="-123.15358">
    <ele>319.46000000000004</ele>
   </trkpt>
   <trkpt lat="49.67005" lon="-123.15367">
    <ele>327.55</ele>
   </trkpt>
   <trkpt lat="49.66973" lon="-123.15396000000001">
    <ele>338.22</ele>
   </trkpt>
   <trkpt lat="49.669720000000005" lon="-123.15396000000001">
    <ele>338.7</ele>
   </trkpt>
   <trkpt lat="49.66913" lon="-123.15421">
    <ele>347.35</ele>
   </trkpt>
   <trkpt lat="49.669160000000005" lon="-123.15330000000002">
    <ele>384.61</ele>
   </trkpt>
   <trkpt lat="49.66912000000001" lon="-123.15320000000001">
    <ele>382.46000000000004</ele>
   </trkpt>
   <trkpt lat="49.66906" lon="-123.15326">
    <ele>382.18</ele>
   </trkpt>
   <trkpt lat="49.66895" lon="-123.15348000000002">
    <ele>379.71000000000004</ele>
   </trkpt>
   <trkpt lat="49.66883000000001" lon="-123.15358">
    <ele>376.71000000000004</ele>
   </trkpt>
   <trkpt lat="49.66854000000001" lon="-123.15389">
    <ele>373.37</ele>
   </trkpt>
   <trkpt lat="49.66832" lon="-123.15402000000002">
    <ele>376.12</ele>
   </trkpt>
   <trkpt lat="49.66821" lon="-123.15403">
    <ele>377.23</ele>
   </trkpt>
   <trkpt lat="49.668110000000006" lon="-123.15412">
    <ele>378.47</ele>
   </trkpt>
   <trkpt lat="49.668000000000006" lon="-123.15416">
    <ele>380.88000000000005</ele>
   </trkpt>
   <trkpt lat="49.66780000000001" lon="-123.15417000000001">
    <ele>389.11</ele>
   </trkpt>
   <trkpt lat="49.667750000000005" lon="-123.15423000000001">
    <ele>390.62</ele>
   </trkpt>
   <trkpt lat="49.66760000000001" lon="-123.15416">
    <ele>393.03000000000003</ele>
   </trkpt>
   <trkpt lat="49.66731" lon="-123.15412">
    <ele>402.78000000000003</ele>
   </trkpt>
   <trkpt lat="49.667260000000006" lon="-123.15394">
    <ele>404.83000000000004</ele>
   </trkpt>
   <trkpt lat="49.66729" lon="-123.15389">
    <ele>407.18</ele>
   </trkpt>
   <trkpt lat="49.667300000000004" lon="-123.1538">
    <ele>407.18</ele>
   </trkpt>
   <trkpt lat="49.66742000000001" lon="-123.15353">
    <ele>413.29</ele>
   </trkpt>
   <trkpt lat="49.667410000000004" lon="-123.15353">
    <ele>413.53</ele>
   </trkpt>
   <trkpt lat="49.66758" lon="-123.15332000000001">
    <ele>419.41</ele>
   </trkpt>
   <trkpt lat="49.667770000000004" lon="-123.15313">
    <ele>423.39000000000004</ele>
   </trkpt>
   <trkpt lat="49.667880000000004" lon="-123.153">
    <ele>424.91</ele>
   </trkpt>
   <trkpt lat="49.66792" lon="-123.15290000000002">
    <ele>425.28000000000003</ele>
   </trkpt>
   <trkpt lat="49.667930000000005" lon="-123.15282">
    <ele>425.73</ele>
   </trkpt>
   <trkpt lat="49.667910000000006" lon="-123.15273">
    <ele>426.73</ele>
   </trkpt>
   <trkpt lat="49.667820000000006" lon="-123.15259">
    <ele>427.53000000000003</ele>
   </trkpt>
   <trkpt lat="49.66760000000001" lon="-123.15254000000002">
    <ele>430.18000000000006</ele>
   </trkpt>
   <trkpt lat="49.66747" lon="-123.15236000000002">
    <ele>435.01000000000005</ele>
   </trkpt>
   <trkpt lat="49.667390000000005" lon="-123.15232">
    <ele>439.04</ele>
   </trkpt>
   <trkpt lat="49.667260000000006" lon="-123.15220000000001">
    <ele>441.87</ele>
   </trkpt>
   <trkpt lat="49.66716" lon="-123.15219">
    <ele>445.03000000000003</ele>
   </trkpt>
   <trkpt lat="49.66713000000001" lon="-123.15215">
    <ele>448.57</ele>
   </trkpt>
   <trkpt lat="49.66714" lon="-123.15201">
    <ele>454.08000000000004</ele>
   </trkpt>
   <trkpt lat="49.667170000000006" lon="-123.15189000000001">
    <ele>454.08000000000004</ele>
   </trkpt>
   <trkpt lat="49.66731" lon="-123.1517">
    <ele>465.36</ele>
   </trkpt>
   <trkpt lat="49.66731" lon="-123.15151000000002">
    <ele>468.14000000000004</ele>
   </trkpt>
   <trkpt lat="49.66723" lon="-123.15138">
    <ele>476.80000000000007</ele>
   </trkpt>
   <trkpt lat="49.66734" lon="-123.15112">
    <ele>490.15000000000003</ele>
   </trkpt>
   <trkpt lat="49.667350000000006" lon="-123.15099000000001">
    <ele>494.69</ele>
   </trkpt>
   <trkpt lat="49.667410000000004" lon="-123.15089">
    <ele>498.02</ele>
   </trkpt>
   <trkpt lat="49.667440000000006" lon="-123.15067">
    <ele>501.1500000000001</ele>
   </trkpt>
   <trkpt lat="49.667530000000006" lon="-123.15058">
    <ele>501.81000000000006</ele>
   </trkpt>
   <trkpt lat="49.667570000000005" lon="-123.15050000000001">
    <ele>502.24</ele>
   </trkpt>
   <trkpt lat="49.66769000000001" lon="-123.1504">
    <ele>505.38000000000005</ele>
   </trkpt>
   <trkpt lat="49.667750000000005" lon="-123.15031">
    <ele>506.2000000000001</ele>
   </trkpt>
   <trkpt lat="49.66778000000001" lon="-123.15018">
    <ele>507.43000000000006</ele>
   </trkpt>
   <trkpt lat="49.667970000000004" lon="-123.14982">
    <ele>508.30000000000007</ele>
   </trkpt>
   <trkpt lat="49.668310000000005" lon="-123.14937">
    <ele>500.68</ele>
   </trkpt>
   <trkpt lat="49.66836000000001" lon="-123.14911000000001">
    <ele>499.83000000000004</ele>
   </trkpt>
   <trkpt lat="49.66836000000001" lon="-123.14912000000001">
    <ele>499.82000000000005</ele>
   </trkpt>
   <trkpt lat="49.66856000000001" lon="-123.14875">
    <ele>493.90000000000003</ele>
   </trkpt>
   <trkpt lat="49.66875" lon="-123.14776">
    <ele>497.76000000000005</ele>
   </trkpt>
   <trkpt lat="49.668710000000004" lon="-123.14749">
    <ele>508.13000000000005</ele>
   </trkpt>
   <trkpt lat="49.66879" lon="-123.14726000000002">
    <ele>514.03</ele>
   </trkpt>
   <trkpt lat="49.66863000000001" lon="-123.14673">
    <ele>528.3800000000001</ele>
   </trkpt>
   <trkpt lat="49.66854000000001" lon="-123.1466">
    <ele>531.59</ele>
   </trkpt>
   <trkpt lat="49.668580000000006" lon="-123.14633">
    <ele>535.6899999999999</ele>
   </trkpt>
   <trkpt lat="49.66866" lon="-123.14614000000002">
    <ele>540.82</ele>
   </trkpt>
   <trkpt lat="49.66863000000001" lon="-123.14584">
    <ele>551.8700000000001</ele>
   </trkpt>
   <trkpt lat="49.668580000000006" lon="-123.1457">
    <ele>553.6600000000001</ele>
   </trkpt>
   <trkpt lat="49.66861" lon="-123.14544000000001">
    <ele>556.61</ele>
   </trkpt>
   <trkpt lat="49.668580000000006" lon="-123.1453">
    <ele>562.9200000000001</ele>
   </trkpt>
   <trkpt lat="49.66854000000001" lon="-123.14525">
    <ele>562.9200000000001</ele>
   </trkpt>
   <trkpt lat="49.6685" lon="-123.14525">
    <ele>564.23</ele>
   </trkpt>
   <trkpt lat="49.668380000000006" lon="-123.14535000000001">
    <ele>567.57</ele>
   </trkpt>
   <trkpt lat="49.66836000000001" lon="-123.14535000000001">
    <ele>568.3900000000001</ele>
   </trkpt>
   <trkpt lat="49.668330000000005" lon="-123.14535000000001">
    <ele>568.3900000000001</ele>
   </trkpt>
   <trkpt lat="49.66823" lon="-123.14522000000001">
    <ele>573.69</ele>
   </trkpt>
   <trkpt lat="49.66819" lon="-123.14508000000001">
    <ele>577.26</ele>
   </trkpt>
   <trkpt lat="49.66792" lon="-123.14475000000002">
    <ele>583.48</ele>
   </trkpt>
   <trkpt lat="49.66787" lon="-123.14435000000002">
    <ele>579.94</ele>
   </trkpt>
   <trkpt lat="49.66796" lon="-123.14381000000002">
    <ele>580.6600000000001</ele>
   </trkpt>
   <trkpt lat="49.66794" lon="-123.14357000000001">
    <ele>579.11</ele>
   </trkpt>
   <trkpt lat="49.667730000000006" lon="-123.14320000000001">
    <ele>581.25</ele>
   </trkpt>
   <trkpt lat="49.66761" lon="-123.14288">
    <ele>587.65</ele>
   </trkpt>
   <trkpt lat="49.667410000000004" lon="-123.14261">
    <ele>593.83</ele>
   </trkpt>
   <trkpt lat="49.66713000000001" lon="-123.14251000000002">
    <ele>596.32</ele>
   </trkpt>
   <trkpt lat="49.667060000000006" lon="-123.14242000000002">
    <ele>597.58</ele>
   </trkpt>
   <trkpt lat="49.667010000000005" lon="-123.14234">
    <ele>598.8500000000001</ele>
   </trkpt>
   <trkpt lat="49.666920000000005" lon="-123.1423">
    <ele>599.5200000000001</ele>
   </trkpt>
   <trkpt lat="49.666790000000006" lon="-123.14216">
    <ele>602.2</ele>
   </trkpt>
   <trkpt lat="49.666760000000004" lon="-123.14208">
    <ele>604.72</ele>
   </trkpt>
   <trkpt lat="49.666760000000004" lon="-123.14194">
    <ele>605.48</ele>
   </trkpt>
   <trkpt lat="49.66691" lon="-123.14149">
    <ele>610.14</ele>
   </trkpt>
   <trkpt lat="49.66691" lon="-123.14137000000001">
    <ele>611.7</ele>
   </trkpt>
   <trkpt lat="49.667" lon="-123.14127">
    <ele>613.0699999999999</ele>
   </trkpt>
   <trkpt lat="49.66715000000001" lon="-123.14104">
    <ele>615.08</ele>
   </trkpt>
   <trkpt lat="49.66718" lon="-123.14090000000002">
    <ele>616.4900000000001</ele>
   </trkpt>
   <trkpt lat="49.66714" lon="-123.14037">
    <ele>621.33</ele>
   </trkpt>
   <trkpt lat="49.66722000000001" lon="-123.13979">
    <ele>624.56</ele>
   </trkpt>
   <trkpt lat="49.66716" lon="-123.13952">
    <ele>624.3000000000001</ele>
   </trkpt>
   <trkpt lat="49.66704000000001" lon="-123.13920000000002">
    <ele>623.59</ele>
   </trkpt>
   <trkpt lat="49.667030000000004" lon="-123.13903">
    <ele>623.75</ele>
   </trkpt>
   <trkpt lat="49.66707" lon="-123.13885">
    <ele>624.38</ele>
   </trkpt>
   <trkpt lat="49.667190000000005" lon="-123.13859000000001">
    <ele>625.84</ele>
   </trkpt>
   <trkpt lat="49.667280000000005" lon="-123.13846000000001">
    <ele>626.19</ele>
   </trkpt>
   <trkpt lat="49.667390000000005" lon="-123.1384">
    <ele>626.5400000000001</ele>
   </trkpt>
   <trkpt lat="49.667550000000006" lon="-123.13846000000001">
    <ele>627.2500000000001</ele>
   </trkpt>
   <trkpt lat="49.667790000000004" lon="-123.13866000000002">
    <ele>630.35</ele>
   </trkpt>
   <trkpt lat="49.66789000000001" lon="-123.13868000000001">
    <ele>630.35</ele>
   </trkpt>
   <trkpt lat="49.66799" lon="-123.13866000000002">
    <ele>631.24</ele>
   </trkpt>
   <trkpt lat="49.66809000000001" lon="-123.13849">
    <ele>632.7</ele>
   </trkpt>
   <trkpt lat="49.66812" lon="-123.13836">
    <ele>634.3100000000001</ele>
   </trkpt>
   <trkpt lat="49.668130000000005" lon="-123.13809">
    <ele>636.5200000000001</ele>
   </trkpt>
   <trkpt lat="49.6681" lon="-123.13788000000001">
    <ele>637.33</ele>
   </trkpt>
   <trkpt lat="49.66809000000001" lon="-123.13779000000001">
    <ele>638.07</ele>
   </trkpt>
   <trkpt lat="49.668130000000005" lon="-123.13782">
    <ele>638.07</ele>
   </trkpt>
   <trkpt lat="49.668470000000006" lon="-123.13854">
    <ele>645.66</ele>
   </trkpt>
   <trkpt lat="49.66864" lon="-123.13875000000002">
    <ele>646.58</ele>
   </trkpt>
   <trkpt lat="49.66872000000001" lon="-123.1388">
    <ele>646.44</ele>
   </trkpt>
   <trkpt lat="49.66908" lon="-123.13925">
    <ele>645.88</ele>
   </trkpt>
   <trkpt lat="49.669470000000004" lon="-123.13965">
    <ele>644.5500000000001</ele>
   </trkpt>
   <trkpt lat="49.66978" lon="-123.1401">
    <ele>645.4200000000001</ele>
   </trkpt>
   <trkpt lat="49.66998" lon="-123.14037">
    <ele>646.05</ele>
   </trkpt>
   <trkpt lat="49.67029" lon="-123.14051">
    <ele>653.2800000000001</ele>
   </trkpt>
   <trkpt lat="49.67042000000001" lon="-123.14042">
    <ele>660.5300000000001</ele>
   </trkpt>
   <trkpt lat="49.670500000000004" lon="-123.14046">
    <ele>662.03</ele>
   </trkpt>
   <trkpt lat="49.67071000000001" lon="-123.14042">
    <ele>670.61</ele>
   </trkpt>
   <trkpt lat="49.67085" lon="-123.14033">
    <ele>677.48</ele>
   </trkpt>
   <trkpt lat="49.67103" lon="-123.14029000000001">
    <ele>685.2600000000001</ele>
   </trkpt>
   <trkpt lat="49.67127000000001" lon="-123.1401">
    <ele>688.76</ele>
   </trkpt>
   <trkpt lat="49.671350000000004" lon="-123.1401">
    <ele>688.4200000000001</ele>
   </trkpt>
   <trkpt lat="49.671420000000005" lon="-123.14015">
    <ele>688.36</ele>
   </trkpt>
   <trkpt lat="49.67168" lon="-123.14005000000002">
    <ele>695.1700000000001</ele>
   </trkpt>
   <trkpt lat="49.67188" lon="-123.13989000000001">
    <ele>698.2700000000001</ele>
   </trkpt>
   <trkpt lat="49.67201000000001" lon="-123.1397">
    <ele>702.47</ele>
   </trkpt>
   <trkpt lat="49.67212000000001" lon="-123.13962000000001">
    <ele>703.67</ele>
   </trkpt>
   <trkpt lat="49.672200000000004" lon="-123.13961">
    <ele>705.1800000000001</ele>
   </trkpt>
   <trkpt lat="49.67228" lon="-123.13956">
    <ele>705.72</ele>
   </trkpt>
   <trkpt lat="49.67248000000001" lon="-123.13914000000001">
    <ele>712.8000000000001</ele>
   </trkpt>
   <trkpt lat="49.672410000000006" lon="-123.13898">
    <ele>717.07</ele>
   </trkpt>
   <trkpt lat="49.67237" lon="-123.13867">
    <ele>723.7300000000001</ele>
   </trkpt>
   <trkpt lat="49.67239000000001" lon="-123.13849">
    <ele>736.32</ele>
   </trkpt>
   <trkpt lat="49.67244" lon="-123.1384">
    <ele>737.86</ele>
   </trkpt>
   <trkpt lat="49.672630000000005" lon="-123.13827">
    <ele>743.74</ele>
   </trkpt>
   <trkpt lat="49.67271" lon="-123.13818">
    <ele>746.44</ele>
   </trkpt>
   <trkpt lat="49.672940000000004" lon="-123.13751">
    <ele>757.36</ele>
   </trkpt>
   <trkpt lat="49.67305" lon="-123.13688">
    <ele>765.58</ele>
   </trkpt>
   <trkpt lat="49.67305" lon="-123.13680000000001">
    <ele>765.95</ele>
   </trkpt>
   <trkpt lat="49.67302" lon="-123.13674">
    <ele>766.2</ele>
   </trkpt>
   <trkpt lat="49.67284" lon="-123.13661">
    <ele>766.0100000000001</ele>
   </trkpt>
   <trkpt lat="49.672760000000004" lon="-123.13648">
    <ele>765.94</ele>
   </trkpt>
   <trkpt lat="49.67266000000001" lon="-123.13611000000002">
    <ele>766.97</ele>
   </trkpt>
   <trkpt lat="49.67266000000001" lon="-123.13594">
    <ele>768.1000000000001</ele>
   </trkpt>
   <trkpt lat="49.67269" lon="-123.1358">
    <ele>770.32</ele>
   </trkpt>
   <trkpt lat="49.67268000000001" lon="-123.13571">
    <ele>770.32</ele>
   </trkpt>
   <trkpt lat="49.67266000000001" lon="-123.13563">
    <ele>773.5400000000001</ele>
   </trkpt>
   <trkpt lat="49.67250000000001" lon="-123.1354">
    <ele>776.66</ele>
   </trkpt>
   <trkpt lat="49.67250000000001" lon="-123.13531">
    <ele>776.66</ele>
   </trkpt>
   <trkpt lat="49.67253" lon="-123.13522">
    <ele>782.93</ele>
   </trkpt>
   <trkpt lat="49.672540000000005" lon="-123.13504">
    <ele>782.93</ele>
   </trkpt>
   <trkpt lat="49.67250000000001" lon="-123.13491">
    <ele>785.6400000000001</ele>
   </trkpt>
   <trkpt lat="49.6724" lon="-123.13486">
    <ele>790.0200000000001</ele>
   </trkpt>
   <trkpt lat="49.67235" lon="-123.13482">
    <ele>791.3500000000001</ele>
   </trkpt>
   <trkpt lat="49.672270000000005" lon="-123.13446">
    <ele>799.3100000000001</ele>
   </trkpt>
   <trkpt lat="49.67230000000001" lon="-123.13437">
    <ele>800.9300000000001</ele>
   </trkpt>
   <trkpt lat="49.672380000000004" lon="-123.13423000000002">
    <ele>807.7500000000001</ele>
   </trkpt>
   <trkpt lat="49.672360000000005" lon="-123.13416000000001">
    <ele>807.7500000000001</ele>
   </trkpt>
   <trkpt lat="49.672200000000004" lon="-123.13398000000001">
    <ele>814.07</ele>
   </trkpt>
   <trkpt lat="49.67212000000001" lon="-123.13379">
    <ele>823.7</ele>
   </trkpt>
   <trkpt lat="49.67212000000001" lon="-123.13371000000001">
    <ele>823.7</ele>
   </trkpt>
   <trkpt lat="49.67215" lon="-123.13362000000001">
    <ele>823.7</ele>
   </trkpt>
   <trkpt lat="49.67222" lon="-123.13353000000001">
    <ele>829.4800000000001</ele>
   </trkpt>
   <trkpt lat="49.67244" lon="-123.13316">
    <ele>839.8800000000001</ele>
   </trkpt>
   <trkpt lat="49.67250000000001" lon="-123.13294">
    <ele>844.7</ele>
   </trkpt>
   <trkpt lat="49.672470000000004" lon="-123.13264000000001">
    <ele>850.3000000000001</ele>
   </trkpt>
   <trkpt lat="49.672430000000006" lon="-123.13259000000001">
    <ele>852.8800000000001</ele>
   </trkpt>
   <trkpt lat="49.672180000000004" lon="-123.13241000000001">
    <ele>856.3600000000001</ele>
   </trkpt>
   <trkpt lat="49.67195" lon="-123.13195">
    <ele>853.96</ele>
   </trkpt>
   <trkpt lat="49.67193" lon="-123.13182">
    <ele>854.8100000000001</ele>
   </trkpt>
   <trkpt lat="49.671980000000005" lon="-123.13141000000002">
    <ele>859.25</ele>
   </trkpt>
   <trkpt lat="49.67192000000001" lon="-123.13119">
    <ele>863.08</ele>
   </trkpt>
   <trkpt lat="49.67193" lon="-123.13115">
    <ele>863.08</ele>
   </trkpt>
   <trkpt lat="49.67211" lon="-123.13092">
    <ele>870.62</ele>
   </trkpt>
   <trkpt lat="49.67210000000001" lon="-123.13084">
    <ele>873.47</ele>
   </trkpt>
   <trkpt lat="49.67199" lon="-123.13075">
    <ele>875.7900000000001</ele>
   </trkpt>
   <trkpt lat="49.671760000000006" lon="-123.13064000000001">
    <ele>882.08</ele>
   </trkpt>
   <trkpt lat="49.67163000000001" lon="-123.13062000000001">
    <ele>884.51</ele>
   </trkpt>
   <trkpt lat="49.67156000000001" lon="-123.13057">
    <ele>884.51</ele>
   </trkpt>
   <trkpt lat="49.671580000000006" lon="-123.13052">
    <ele>884.51</ele>
   </trkpt>
   <trkpt lat="49.67155" lon="-123.13039">
    <ele>883.7800000000001</ele>
   </trkpt>
  </trkseg>
 </trk>
</gpx>
